GLOBALSTAR M068 [-]     
1 32266U 07048D   24105.00021931 -.00000054  00000+0  27585-3 0  9995
2 32266  51.9870 170.5202 0000640 250.4693 177.0744 12.62784452763622
GLOBALSTAR M079 [+]     
1 37188U 10054A   24105.18072906 -.00000076  00000+0  15436-3 0  9997
2 37188  52.0068   5.7501 0000922  77.9745  86.5602 12.62268225622957
GLOBALSTAR M074 [+]     
1 37189U 10054B   24105.12434029 -.00000071  00000+0  18090-3 0  9994
2 37189  52.0042   5.3118 0000637  78.5562  68.9970 12.62266842622941
GLOBALSTAR M076 [+]     
1 37190U 10054C   24105.15043372 -.00000076  00000+0  15487-3 0  9998
2 37190  52.0057   5.3633 0001001 106.9804  39.8811 12.62276485622958
GLOBALSTAR M077 [+]     
1 37191U 10054D   24104.80612963 -.00000079  00000+0  13867-3 0  9991
2 37191  52.0083 323.1471 0000746  97.0227 343.5975 12.62271489622925
GLOBALSTAR M075 [+]     
1 37192U 10054E   24105.24313738 -.00000088  00000+0  87922-4 0  9993
2 37192  51.9966  47.5750 0000619  65.0459  82.7568 12.62272249622208
GLOBALSTAR M073 [+]     
1 37193U 10054F   24104.91658163 -.00000075  00000+0  15949-3 0  9996
2 37193  52.0068 322.0646 0000869  95.0535   8.3236 12.62263657623620
GLOBALSTAR M083 [+]     
1 37739U 11033A   24104.77098747 -.00000053  00000+0  28267-3 0  9993
2 37739  51.9850 271.8243 0000721  85.3189  16.6420 12.62268515592621
GLOBALSTAR M088 [+]     
1 37740U 11033B   24104.50695194 -.00000078  00000+0  14546-3 0  9997
2 37740  51.9723 178.4810 0000441  91.8273  10.2927 12.62266923588133
GLOBALSTAR M091 [+]     
1 37741U 11033C   24105.48027206 -.00000102  00000+0  93582-5 0  9996
2 37741  51.9976 138.3037 0000418  55.6675  91.5036 12.62261548589309
GLOBALSTAR M085 [+]     
1 37742U 11033D   24105.39175448 -.00000106  00000+0 -11699-4 0  9992
2 37742  51.9857  89.9894 0000543  47.5603 116.8099 12.62269509590037
GLOBALSTAR M081 [+]     
1 37743U 11033E   24105.41816399 -.00000105  00000+0 -53805-5 0  9998
2 37743  51.9947  92.4310 0000646  61.3243 103.1595 12.62264129590075
GLOBALSTAR M089 [+]     
1 37744U 11033F   24105.04374660 -.00000094  00000+0  56863-4 0  9990
2 37744  51.9949  47.8806 0000637 104.2660 337.1071 12.62261810590748
GLOBALSTAR M084 [+]     
1 38040U 11080A   24105.43857498 -.00000079  00000+0  13646-3 0  9994
2 38040  51.9999 273.7396 0000869 124.5619 253.0484 12.62273291568805
GLOBALSTAR M080 [+]     
1 38041U 11080B   24104.79793777 -.00000083  00000+0  11671-3 0  9993
2 38041  52.0053 277.1479 0001091 122.1274 341.7677 12.62271172568566
GLOBALSTAR M082 [+]     
1 38042U 11080C   24104.65302940 -.00000081  00000+0  12783-3 0  9990
2 38042  52.0067 232.9891 0000376  50.9991  53.9467 12.62267963569257
GLOBALSTAR M092 [+]     
1 38043U 11080D   24104.94389828 -.00000073  00000+0  17192-3 0  9993
2 38043  52.0093 322.4584 0000607 104.7027   3.3200 12.62277981567956
GLOBALSTAR M090 [+]     
1 38044U 11080E   24105.54449733 -.00000080  00000+0  13115-3 0  9992
2 38044  51.9877 224.6346 0000474  92.4153 346.6805 12.62268078569525
GLOBALSTAR M086 [+]     
1 38045U 11080F   24104.54197900 -.00000079  00000+0  13960-3 0  9994
2 38045  51.9889 228.2058 0001538  98.7418 342.0460 12.62269418569306
GLOBALSTAR M097 [+]     
1 39072U 13005A   24105.02594343 -.00000100  00000+0  21208-4 0  9990
2 39072  52.0026 140.8449 0000484  72.9057 287.1863 12.62262378516695
GLOBALSTAR M093 [+]     
1 39073U 13005B   24104.92014852 -.00000101  00000+0  17371-4 0  9998
2 39073  51.9790 135.1559 0000520  60.2991 299.7927 12.62263108516679
GLOBALSTAR M094 [+]     
1 39074U 13005C   24105.23692719 -.00000099  00000+0  25596-4 0  9992
2 39074  51.9976  48.1410 0000744  60.7769 299.3172 12.62264200518226
GLOBALSTAR M096 [+]     
1 39075U 13005D   24104.45818217 -.00000118  00000+0 -79862-4 0  9997
2 39075  52.0060  98.6913 0000608  48.8942 311.1978 12.62264260517020
GLOBALSTAR M078 [+]     
1 39076U 13005E   24105.22421691 -.00000028  00000+0  42378-3 0  9990
2 39076  51.9861 181.4594 0000622 319.9771  40.1050 12.62261429515956
GLOBALSTAR M095 [+]     
1 39077U 13005F   24104.93307678 -.00000040  00000+0  35795-3 0  9995
2 39077  51.9791 179.7508 0000516  29.0225 331.0670 12.62265234515924
GLOBALSTAR M087 [+]     
1 52888U 22064A   24105.07126102 -.00000112  00000+0  30267-4 0  9992
2 52888  51.9759  71.9473 0009117 199.5326 160.5226 13.37569581 88942
